ADRAS-J                 
1 58992U 24034A   24147.47639137  .00004632  00000+0  43296-3 0  9995
2 58992  98.2117 119.5195 0045997 119.0355 241.5484 14.93866666 14628
